STARLINK-2022           
1 47643U 21012Z   23245.44966042  .00007415  00000+0  51592-3 0  9992
2 47643  53.0528 218.2480 0001255 104.7241 255.3888 15.06419597141716
